[
    {
        "Altitude(m)": 708731.5589398997,
        "Argument of Periapsis(deg)": 0.0011390121186627068,
        "Eccentricity": 0.0,
        "Inclination(deg)": 45.0,
        "Latitude(deg)": -21.890821143066724,
        "Longitude(deg)": -8.606177546519401,
        "Mean Anomaly(deg)": -31.5739783352519,
        "RAAN(deg)": 114.99892480585417,
        "Satellite Name": "Constellation 1 526",
        "Satellite Number": 526,
        "Semi-Major Axis(m)": 7083131.272910544,
        "Time(s)": 19
    },
    {
        "Altitude(m)": 708718.1093528005,
        "Argument of Periapsis(deg)": 0.0011989601249081123,
        "Eccentricity": 0.0,
        "Inclination(deg)": 45.0,
        "Latitude(deg)": -21.85129883431455,
        "Longitude(deg)": -8.560627965652682,
        "Mean Anomaly(deg)": -31.513277195002075,
        "RAAN(deg)": 114.9988682166886,
        "Satellite Name": "Constellation 1 526",
        "Satellite Number": 526,
        "Semi-Major Axis(m)": 7083131.272910544,
        "Time(s)": 20
    },
    {
        "Altitude(m)": 708704.6658934287,
        "Argument of Periapsis(deg)": 0.001258908131153518,
        "Eccentricity": 0.0,
        "Inclination(deg)": 45.0,
        "Latitude(deg)": -21.81176130114032,
        "Longitude(deg)": -8.515105561811104,
        "Mean Anomaly(deg)": -31.45257605475213,
        "RAAN(deg)": 114.99881162752303,
        "Satellite Name": "Constellation 1 526",
        "Satellite Number": 526,
        "Semi-Major Axis(m)": 7083131.272910544,
        "Time(s)": 21
    },
    {
        "Altitude(m)": 708691.2286062295,
        "Argument of Periapsis(deg)": 0.0013188561373989236,
        "Eccentricity": 0.0,
        "Inclination(deg)": 45.0,
        "Latitude(deg)": -21.772208581495498,
        "Longitude(deg)": -8.469610444138999,
        "Mean Anomaly(deg)": -31.39187491450228,
        "RAAN(deg)": 114.99875503835747,
        "Satellite Name": "Constellation 1 526",
        "Satellite Number": 526,
        "Semi-Major Axis(m)": 7083131.272910544,
        "Time(s)": 22
    },
    {
        "Altitude(m)": 708677.7975356156,
        "Argument of Periapsis(deg)": 0.0013788041436443293,
        "Eccentricity": 0.0,
        "Inclination(deg)": 45.0,
        "Latitude(deg)": -21.732640713277448,
        "Longitude(deg)": -8.424142217511545,
        "Mean Anomaly(deg)": -31.331173774252292,
        "RAAN(deg)": 114.99869844919188,
        "Satellite Name": "Constellation 1 526",
        "Satellite Number": 526,
        "Semi-Major Axis(m)": 7083131.272910544,
        "Time(s)": 23
    },
    {
        "Altitude(m)": 708664.3727259563,
        "Argument of Periapsis(deg)": 0.001438752149889735,
        "Eccentricity": 0.0,
        "Inclination(deg)": 45.0,
        "Latitude(deg)": -21.69305773433184,
        "Longitude(deg)": -8.378700991117935,
        "Mean Anomaly(deg)": -31.27047263400244,
        "RAAN(deg)": 114.99864186002632,
        "Satellite Name": "Constellation 1 526",
        "Satellite Number": 526,
        "Semi-Major Axis(m)": 7083131.272910544,
        "Time(s)": 24
    },
    {
        "Altitude(m)": 708650.9542215915,
        "Argument of Periapsis(deg)": 0.0014987001561351404,
        "Eccentricity": 0.0,
        "Inclination(deg)": 45.0,
        "Latitude(deg)": -21.653459682451043,
        "Longitude(deg)": -8.333286706072597,
        "Mean Anomaly(deg)": -31.20977149375254,
        "RAAN(deg)": 114.99858527086077,
        "Satellite Name": "Constellation 1 526",
        "Satellite Number": 526,
        "Semi-Major Axis(m)": 7083131.272910544,
        "Time(s)": 25
    },
    {
        "Altitude(m)": 708637.5420668211,
        "Argument of Periapsis(deg)": 0.001558648162380546,
        "Eccentricity": 0.0,
        "Inclination(deg)": 45.0,
        "Latitude(deg)": -21.613846595374905,
        "Longitude(deg)": -8.28789930351289,
        "Mean Anomaly(deg)": -31.14907035350262,
        "RAAN(deg)": 114.99852868169518,
        "Satellite Name": "Constellation 1 526",
        "Satellite Number": 526,
        "Semi-Major Axis(m)": 7083131.272910544,
        "Time(s)": 26
    },
    {
        "Altitude(m)": 708624.1363059029,
        "Argument of Periapsis(deg)": 0.0016185961686259519,
        "Eccentricity": 0.0,
        "Inclination(deg)": 45.0,
        "Latitude(deg)": -21.574218510790775,
        "Longitude(deg)": -8.242538724599115,
        "Mean Anomaly(deg)": -31.08836921325267,
        "RAAN(deg)": 114.99847209252962,
        "Satellite Name": "Constellation 1 526",
        "Satellite Number": 526,
        "Semi-Major Axis(m)": 7083131.272910544,
        "Time(s)": 27
    },
    {
        "Altitude(m)": 708610.7369830615,
        "Argument of Periapsis(deg)": 0.0016785441748713573,
        "Eccentricity": 0.0,
        "Inclination(deg)": 45.0,
        "Latitude(deg)": -21.534575466333653,
        "Longitude(deg)": -8.197204910514683,
        "Mean Anomaly(deg)": -31.027668073002847,
        "RAAN(deg)": 114.99841550336403,
        "Satellite Name": "Constellation 1 526",
        "Satellite Number": 526,
        "Semi-Major Axis(m)": 7083131.272910544,
        "Time(s)": 28
    },
    {
        "Altitude(m)": 708597.3441424802,
        "Argument of Periapsis(deg)": 0.001738492181116763,
        "Eccentricity": 0.0,
        "Inclination(deg)": 45.0,
        "Latitude(deg)": -21.49491749958607,
        "Longitude(deg)": -8.151897802465957,
        "Mean Anomaly(deg)": -30.966966932752946,
        "RAAN(deg)": 114.99835891419848,
        "Satellite Name": "Constellation 1 526",
        "Satellite Number": 526,
        "Semi-Major Axis(m)": 7083131.272910544,
        "Time(s)": 29
    },
    {
        "Altitude(m)": 708583.9578283001,
        "Argument of Periapsis(deg)": 0.0017984401873621684,
        "Eccentricity": 0.0,
        "Inclination(deg)": 45.0,
        "Latitude(deg)": -21.45524464807884,
        "Longitude(deg)": -8.106617509779856,
        "Mean Anomaly(deg)": -30.906265792503046,
        "RAAN(deg)": 114.99830232503292,
        "Satellite Name": "Constellation 1 526",
        "Satellite Number": 526,
        "Semi-Major Axis(m)": 7083131.272910544,
        "Time(s)": 30
    },
    {
        "Altitude(m)": 708570.5780846328,
        "Argument of Periapsis(deg)": 0.0018583881936075745,
        "Eccentricity": 0.0,
        "Inclination(deg)": 45.0,
        "Latitude(deg)": -21.415556949289744,
        "Longitude(deg)": -8.061363637515486,
        "Mean Anomaly(deg)": -30.845564652253124,
        "RAAN(deg)": 114.99824573586733,
        "Satellite Name": "Constellation 1 526",
        "Satellite Number": 526,
        "Semi-Major Axis(m)": 7083131.272910544,
        "Time(s)": 31
    },
    {
        "Altitude(m)": 708557.2049555418,
        "Argument of Periapsis(deg)": 0.0019183361998529795,
        "Eccentricity": 0.0,
        "Inclination(deg)": 45.0,
        "Latitude(deg)": -21.37585444064559,
        "Longitude(deg)": -8.01613629504675,
        "Mean Anomaly(deg)": -30.78486351200326,
        "RAAN(deg)": 114.99818914670178,
        "Satellite Name": "Constellation 1 526",
        "Satellite Number": 526,
        "Semi-Major Axis(m)": 7083131.272910544,
        "Time(s)": 32
    },
    {
        "Altitude(m)": 708543.8384850572,
        "Argument of Periapsis(deg)": 0.0019782842060983856,
        "Eccentricity": 0.0,
        "Inclination(deg)": 45.0,
        "Latitude(deg)": -21.336137159520888,
        "Longitude(deg)": -7.9709354236740335,
        "Mean Anomaly(deg)": -30.724162371753312,
        "RAAN(deg)": 114.99813255753621,
        "Satellite Name": "Constellation 1 526",
        "Satellite Number": 526,
        "Semi-Major Axis(m)": 7083131.272910544,
        "Time(s)": 33
    },
    {
        "Altitude(m)": 708530.4787171618,
        "Argument of Periapsis(deg)": 0.0020382322123437906,
        "Eccentricity": 0.0,
        "Inclination(deg)": 45.0,
        "Latitude(deg)": -21.296405143238673,
        "Longitude(deg)": -7.9257609647218,
        "Mean Anomaly(deg)": -30.663461231503437,
        "RAAN(deg)": 114.99807596837063,
        "Satellite Name": "Constellation 1 526",
        "Satellite Number": 526,
        "Semi-Major Axis(m)": 7083131.272910544,
        "Time(s)": 34
    },
    {
        "Altitude(m)": 708517.1256958127,
        "Argument of Periapsis(deg)": 0.002098180218589197,
        "Eccentricity": 0.0,
        "Inclination(deg)": 45.0,
        "Latitude(deg)": -21.25665842907014,
        "Longitude(deg)": -7.880612859538218,
        "Mean Anomaly(deg)": -30.602760091253536,
        "RAAN(deg)": 114.99801937920506,
        "Satellite Name": "Constellation 1 526",
        "Satellite Number": 526,
        "Semi-Major Axis(m)": 7083131.272910544,
        "Time(s)": 35
    },
    {
        "Altitude(m)": 708503.7794649171,
        "Argument of Periapsis(deg)": 0.002158128224834602,
        "Eccentricity": 0.0,
        "Inclination(deg)": 45.0,
        "Latitude(deg)": -21.21689705423509,
        "Longitude(deg)": -7.835491049495626,
        "Mean Anomaly(deg)": -30.542058951003614,
        "RAAN(deg)": 114.99796279003948,
        "Satellite Name": "Constellation 1 526",
        "Satellite Number": 526,
        "Semi-Major Axis(m)": 7083131.272910544,
        "Time(s)": 36
    },
    {
        "Altitude(m)": 708490.440068341,
        "Argument of Periapsis(deg)": 0.002218076231080008,
        "Eccentricity": 0.0,
        "Inclination(deg)": 45.0,
        "Latitude(deg)": -21.17712105590235,
        "Longitude(deg)": -7.790395644087639,
        "Mean Anomaly(deg)": -30.481357810753767,
        "RAAN(deg)": 114.99790620087393,
        "Satellite Name": "Constellation 1 526",
        "Satellite Number": 526,
        "Semi-Major Axis(m)": 7083131.272910544,
        "Time(s)": 37
    }
]